Country,Country Popularity,Photo Name,Votes,Latitude,Longitude,URL
Canada,2,Dawn's Sunburst,3679,51.1783629,-115.5707694,https://drscdn.500px.org/photo/149794829/w%3D280_h%3D280/20d48475438c0b0fadef87bd3a7d152d?v=3
France,4,The Soul.,3671,43.644825,3.93661199999997,https://drscdn.500px.org/photo/149997649/w%3D280_h%3D280/c5f26759b74aa1fb1161a3150d888fbd?v=3
South Korea,3,Miracle on the Mountain,3470,35.8890500793609,127.383728027344,https://drscdn.500px.org/photo/149364693/w%3D280_h%3D280/d7cc8ddf214e4d3d266ec53f15d2ec05?v=3
Russia,11,Nastya,3413,56.8389261,60.6057025,https://drscdn.500px.org/photo/149824629/w%3D280_h%3D280/9c83a9d81b15af87dd84cff748dae78e?v=3
South Korea,3,Spring Festival,3340,36.7595903,126.5765648,https://drscdn.500px.org/photo/149877967/w%3D280_h%3D280/ca775142922af6c1b203473467dd0c09?v=3
Russia,11,Galya,3191,55.5234083333333,37.6632783333333,https://drscdn.500px.org/photo/149659011/w%3D280_h%3D280/899d3490babe866665d385b1281f0946?v=9
Russia,11,Nadya,3154,56.8389261,60.6057025,https://drscdn.500px.org/photo/149720355/w%3D280_h%3D280/84054dfcca87c2af422929da0f727a1c?v=3
Australia,6,Wrapping up Dawn,3088,-34.2053990095761,140.428296911996,https://drscdn.500px.org/photo/149667891/w%3D280_h%3D280/6ebfb7328cbb5540cbf02ea1e058f622?v=3
Russia,11,Nastya,3021,55.7633620736725,37.6078587770462,https://drscdn.500px.org/photo/150133413/w%3D280_h%3D280/58ca2cd8c4d08b14878998c9c28ddd1b?v=3
Australia,6,Erosion,2908,-38.664292358919,143.103770128655,https://drscdn.500px.org/photo/150143805/w%3D280_h%3D280/e1497c80da935fce70ce7b22cf34a37d?v=3
New Zealand,3,Autumn Display  Canterbury  New Zealand,2823,-44.2984637,170.0800325,https://drscdn.500px.org/photo/149982589/w%3D280_h%3D280/8ba52abf24b769cabaeae0ba492cdd2f?v=3
Russia,11,Tanya,2698,56.8389261,60.6057025,https://drscdn.500px.org/photo/150060823/w%3D280_h%3D280/f34328d0f00559e45ce9d6eb4e76924e?v=3
Iceland,8,Lomagnupur,2581,63.9672404588875,-17.4597587808967,https://drscdn.500px.org/photo/149265181/w%3D280_h%3D280/a6b14f5e83a440b35c275dca4aa4147e?v=3
Fiji,1,deeper shades of blue,2531,-17.857702,177.201791,https://drscdn.500px.org/photo/149316509/w%3D280_h%3D280/2e3fca4248d5a4517ed731dd5a7505e3?v=3
Russia,11,Alya,2446,55.7879879169997,37.5838208198547,https://drscdn.500px.org/photo/149983553/w%3D280_h%3D280/57aca70783ae189f2c13357054415a33?v=3
Iceland,8,Reflections,2315,64.2440726,-14.964838,https://drscdn.500px.org/photo/150033671/w%3D280_h%3D280/a3d3b2420dff30169b1a068bf28e0443?v=3
United States,13,Gnarly,2291,48.6038576082326,-113.40087890625,https://drscdn.500px.org/photo/149246917/w%3D280_h%3D280/11a2b81db8c1b7486ace718a1b25f707?v=3
Spain,5,In harmony,2287,37.4079781830971,-1.5837821981404,https://drscdn.500px.org/photo/149484945/w%3D280_h%3D280/8a88e28348fe206fb0e9838cb97638a9?v=4
Greece,1,First  light,2168,35.9780061808557,27.9931640625,https://drscdn.500px.org/photo/149857423/w%3D280_h%3D280/5cafc1070d96a84f8f9d097a05f48fea?v=3
South Korea,3,Peaceful morning,2137,37.3854351826272,126.727294921875,https://drscdn.500px.org/photo/150006993/w%3D280_h%3D280/e3a958de22fbbad5d39657ab1667a8a9?v=3
Turkey,1,Tulip Revolution ...,2136,37.717373,33.043449,https://drscdn.500px.org/photo/149978829/w%3D280_h%3D280/ab9dbd1c8ee10fca6af08bca294dc556?v=3
United States,13,At Last Light,2130,41.5446975,-96.1350702,https://drscdn.500px.org/photo/149925681/w%3D280_h%3D280/f671120f444ecaf01e7315fa13286b8c?v=3
United States,13,Golden Autumn,2093,41.5446975,-96.1350702,https://drscdn.500px.org/photo/149717537/w%3D280_h%3D280/70570df3f1971610fa3cc5c2e9c31480?v=3
Belarus,1,Nastya,2078,53.9092933184026,27.5200223922729,https://drscdn.500px.org/photo/149649579/w%3D280_h%3D280/4ae2406cb87f0ae950b0499d78bc84c9?v=3
United States,13,Story Time,2054,41.5446975,-96.1350702,https://drscdn.500px.org/photo/149747667/w%3D280_h%3D280/43ac4a8dbed6c6472ed5e0976466484f?v=3
Iceland,8,Follow your dreams...,2046,64.2493682474261,-15.084228515625,https://drscdn.500px.org/photo/150143125/w%3D280_h%3D280/24df52978c871d4db01db181527f97ca?v=3
Russia,11,Kate...,2032,55.755826,37.6173,https://drscdn.500px.org/photo/149878601/w%3D280_h%3D280/d3b63dfb1d7b8db1d945f6bf0235c169?v=3
Netherlands,4,Zaanse Schans  Holland.,2028,52.4420399,4.82919919999995,https://drscdn.500px.org/photo/149866401/w%3D280_h%3D280/762bfad2539f7b77777ac54a02fb5c88?v=3
Russia,11,SnowFall,2024,55.7883739861673,37.7053141593933,https://drscdn.500px.org/photo/150144591/w%3D280_h%3D280/9b2c0f86aa5c08e34d718ba95aeeab40?v=2
Norway,6,Fire !,2023,59.8889368967658,7.03125,https://drscdn.500px.org/photo/149648007/w%3D280_h%3D280/2049e024c6bccd0d56d98386a7fde703?v=3
Australia,6,Tahan,1978,-37.8234465,145.3052509,https://drscdn.500px.org/photo/150022513/w%3D280_h%3D280/76a18720203d1f1c090723a719868e93?v=3
United States,13,Splash,1969,41.5446975,-96.1350702,https://drscdn.500px.org/photo/149736679/w%3D280_h%3D280/10dad81e0510df31174cedec82933b09?v=3
France,4,Under the sun,1941,47.218371,-1.55362100000002,https://drscdn.500px.org/photo/149835909/w%3D280_h%3D280/abf86dbf42f84af6124cb9b9a2f6a611?v=3
Ukraine,1,Mrs Green,1925,46.482526,30.7233095,https://drscdn.500px.org/photo/150132687/w%3D280_h%3D280/566876389d071f602309e24add59e350?v=3
Romania,1,Path to Dracula Castle,1859,45.5149022,25.3671637,https://drscdn.500px.org/photo/149673589/w%3D280_h%3D280/754cf651c47fcb447d25c92c7f7a537b?v=3
Iceland,8,The Lonely Church,1837,65.5479161258354,-24.3563353805803,https://drscdn.500px.org/photo/149819731/w%3D280_h%3D280/46a6dcfab8e7b8dddfd757b10340f0fb?v=5
Italy,6,Battle in the rain,1818,45.6982642,9.67726979999998,https://drscdn.500px.org/photo/150167067/w%3D280_h%3D280/2f1de9f0f3d2076887571e345ce0ada0?v=3
Canada,2,Window on White,1787,51.0486151,-114.0708459,https://drscdn.500px.org/photo/149772359/w%3D280_h%3D280/42ffba756ce7d933b8d9ce4544cf7d5e?v=3
Russia,11,Portrait,1769,55.755826,37.6173,https://drscdn.500px.org/photo/149642395/w%3D280_h%3D280/92f1f44c991beb412158777aa9d3257b?v=3
Netherlands,4,Zaanse Schans  Holland.,1755,52.4420399,4.82919919999995,https://drscdn.500px.org/photo/150022311/w%3D280_h%3D280/b35321c9efb3064b94bf538c218e29e1?v=3
United States,13,Into the unknown,1745,32.8290111111111,-117.282133333333,https://drscdn.500px.org/photo/149767457/w%3D280_h%3D280/d68cca56013a0224d52ea5fc8cd33c39?v=3
Italy,6,Braiessence...,1701,46.6946966,12.0854459,https://drscdn.500px.org/photo/149665953/w%3D280_h%3D280/f534fb1f146b46519dbd5db74c3affc7?v=3
United States,13,Crags of Pestilence,1684,47.4225126543572,-120.936126708984,https://drscdn.500px.org/photo/150084747/w%3D280_h%3D280/26cd4733f2c3cad5213d700124c93799?v=3
United States,13,Anything that gets your blood racing is probably worth doing.,1671,37.7859333333333,-122.414325,https://drscdn.500px.org/photo/149733599/w%3D280_h%3D280/61e3f761d9e88ecb7513e86316eccd87?v=3
Netherlands,4,Dream,1667,52.3809645425751,4.84277330338955,https://drscdn.500px.org/photo/150074203/w%3D280_h%3D280/68a76239562c04f7ae9139217fc52cd7?v=3
United States,13,Land of Fire,1655,36.5436338,-114.4485235,https://drscdn.500px.org/photo/149951399/w%3D280_h%3D280/2a315bc21e6d231be0f51870495919af?v=2
Spain,5,martin strauss photography mahsa,1609,41.3850639,2.17340349999995,https://drscdn.500px.org/photo/149910165/w%3D280_h%3D280/ff2454ab585be04a21a198e1e697ee75?v=3
China,1,Coastal scenery,1605,38.9346768548403,121.109268665314,https://drscdn.500px.org/photo/149811011/w%3D280_h%3D280/ef665db4d0f1a4988edace1ef215bec8?v=3
Spain,5,Galactic Tajinaste,1602,28.2915637,-16.6291304,https://drscdn.500px.org/photo/150058929/w%3D280_h%3D280/86a7502fbb8f26d5219a3dadc61af9b2?v=3
Chile,1,Osorno Volcano,1602,-41.1680979618441,-72.4436951056123,https://drscdn.500px.org/photo/149962903/w%3D280_h%3D280/4ec571991c896b8f4ba30a94980c3647?v=3
Sri Lanka,2,MAVRIN,1587,7.873054,80.771797,https://drscdn.500px.org/photo/149807825/w%3D280_h%3D280/7af469c1e99a3994672ed6e9adce8086?v=2
Norway,6,wintermorning,1585,60.2398111699989,7.03125,https://drscdn.500px.org/photo/150039199/w%3D280_h%3D280/7984ae4dff80438fdb08157f2770f5a5?v=4
Spain,5,MAVRIN,1547,41.3850639,2.17340349999995,https://drscdn.500px.org/photo/149806491/w%3D280_h%3D280/6470e55401db22b11b1c8ea810fcb079?v=3
Japan,4,Kurashiki - Japan,1546,34.5850134,133.7720841,https://drscdn.500px.org/photo/149825861/w%3D280_h%3D280/5debd4bb7019441242260312a292df00?v=3
Australia,6,Arielle,1527,-37.8234465,145.3052509,https://drscdn.500px.org/photo/149831481/w%3D280_h%3D280/55bf7f00273ca210a15378c7355040d8?v=3
Iran,1,The sunset over Mahabad  Kurdistan,1501,36.786192,45.76692,https://drscdn.500px.org/photo/149752019/w%3D280_h%3D280/04a5abb83829e07c308bd224624f2b2b?v=3
Norway,6,Summer Farewell,1491,60.1682225,10.2564172,https://drscdn.500px.org/photo/150043463/w%3D280_h%3D280/5c0496f16bbbb3a97b32f201796897eb?v=4
Italy,6,Orange,1462,46.6186777,12.3027678999999,https://drscdn.500px.org/photo/149813719/w%3D280_h%3D280/b4edcb28f1db84bd353090317433686e?v=3
Italy,6,Magic morning,1435,43.256638932058,11.4889070391655,https://drscdn.500px.org/photo/149888709/w%3D280_h%3D280/1ce2418b843ccda4c899f3fb4835672e?v=3
Ireland,1,Man by the sea - Howth  Ireland - Black and white street photography,1419,53.3934,-6.06658833333333,https://drscdn.500px.org/photo/149722081/w%3D280_h%3D280/0cda4d221ceb5e0bedc196938858b260?v=3
Germany,4,Plane,1419,52.5200066,13.404954,https://drscdn.500px.org/photo/149737405/w%3D280_h%3D280/e8c78df1e3ec6ddca984a72e374ede28?v=3
Iceland,8,Inside the beast,1413,64.963051,-19.020835,https://drscdn.500px.org/photo/149983883/w%3D280_h%3D280/45f9e4305839fad64830a8f2c600d906?v=8
United States,13,Sunrise in Sunset point - Bryce Canyon  United States - Landscape photography,1414,37.6226,-112.165821666667,https://drscdn.500px.org/photo/149827601/w%3D280_h%3D280/4ff5a708da55339256cbf2ffaac58b18?v=3
Russia,11,****,1410,55.755826,37.6173,https://drscdn.500px.org/photo/149825535/w%3D280_h%3D280/146e912c2087c36fa2f35e23579e1c83?v=3
Japan,4,White-eye,1397,33.5903547,130.4017155,https://drscdn.500px.org/photo/149690859/w%3D280_h%3D280/2320f82a5fd3e3b8f64dad5394b57daf?v=4
Iceland,8,Glacier,1383,64.0457670130046,-16.2113571166992,https://drscdn.500px.org/photo/149852287/w%3D280_h%3D280/81944bd365a17cb71c0651e1e55a7c1f?v=3
Iceland,8,House,1369,64.1234655,-21.8211114000001,https://drscdn.500px.org/photo/149827831/w%3D280_h%3D280/bbe9429f73fd5018b983337bc12ab832?v=3
Australia,6,Kathleen,1366,-37.8234465,145.3052509,https://drscdn.500px.org/photo/149758341/w%3D280_h%3D280/438e9f6879abede6efb58b545b37a61d?v=3
Austria,1,The long and winding road,1364,47.55463,13.9360083,https://drscdn.500px.org/photo/149855677/w%3D280_h%3D280/2bdcb4f5aa0c586410e41a331bf07959?v=4
Saudi Arabia,2,Son of the desert,1330,22.0652780677658,52.91015625,https://drscdn.500px.org/photo/149982487/w%3D280_h%3D280/5e010faf7a86ef041097c133dabbcfae?v=3
Germany,4,Offspring,1325,50.9490923924274,6.96279860268555,https://drscdn.500px.org/photo/150067353/w%3D280_h%3D280/b36fb1716cb171ae29be2f3bb35fbe1e?v=3
Germany,4,Angelina XXVI,1313,51.2277411,6.77345560000003,https://drscdn.500px.org/photo/149696215/w%3D280_h%3D280/0f8112d770c79010fd6558a365009e0b?v=3
Mexico,1,Mictecacíhuatl,1310,19.4326077,-99.133208,https://drscdn.500px.org/photo/149871349/w%3D280_h%3D280/8a9c0747e86cdb964aa5cce75f8b04df?v=3
Saudi Arabia,2,A convoy of the Milky Way,1298,21.6095572757948,39.331226348877,https://drscdn.500px.org/photo/150114655/w%3D280_h%3D280/435a0104ecfefbf5a6e50c581ae164ab?v=3
Denmark,1,FLUCTUATION,1270,57.5847397,9.94189410000001,https://drscdn.500px.org/photo/149835301/w%3D280_h%3D280/dfedddefc880893f9f138bb6cc696775?v=3
United States,13,Life is good (y),1249,40.6700965,-75.4954612,https://drscdn.500px.org/photo/149887461/w%3D280_h%3D280/43c82ed3fd3b8f6710cd95daf21fd3df?v=4
Japan,4,In front of the Dragon,1237,35.6894875,139.6917064,https://drscdn.500px.org/photo/149983431/w%3D280_h%3D280/e5d5c25a89274f7c1435d23f7e68d872?v=3
Japan,4,Amber at Shibuya - Tokyo,1217,35.6617773,139.7040506,https://drscdn.500px.org/photo/150130751/w%3D280_h%3D280/7cc688df82d6182d043a3c0966353bd4?v=3
Sri Lanka,2,MAVRIN,1212,7.873054,80.771797,https://drscdn.500px.org/photo/149807547/w%3D280_h%3D280/bfed65accde862314b58a215c1de014b?v=3
United States,13,Little Red,1207,41.5446975,-96.1350702,https://drscdn.500px.org/photo/150205635/w%3D280_h%3D280/bf4effbbcc1579fd66a6114af96f8a68?v=2
New Zealand,3,The Black Widow.,1186,-44.5435052132082,169.12353515625,https://drscdn.500px.org/photo/149835989/w%3D280_h%3D280/2e7dbafac2ccfeb6ac5d8ee138957850?v=3
Greenland,1,The Artic Fever,1174,82.5497242627381,-36.5625,https://drscdn.500px.org/photo/149881519/w%3D280_h%3D280/e9f4ceda6d6863924ec8f583f9cb5a67?v=4
France,4,Barbara,1171,43.296482,5.36977999999999,https://drscdn.500px.org/photo/149661431/w%3D280_h%3D280/4f3c2df7eb269d1db7f704d7eb93a83b?v=3
Netherlands,4,Dream,1169,52.4064406686167,4.8515622317791,https://drscdn.500px.org/photo/149678751/w%3D280_h%3D280/d6284dd543a1847d3da8be3deaa0666a?v=3
United Kingdom,2,Heads Up,1150,53.226558,-2.88891000000001,https://drscdn.500px.org/photo/149853841/w%3D280_h%3D280/ffc7587a93302c8c559c1f7d2f4365ad?v=3
United Kingdom,2,The Curving Pathway,1146,50.6213158407013,-2.27592945098877,https://drscdn.500px.org/photo/150069217/w%3D280_h%3D280/0eaf4312a59dbbfdc94a0a04d2699563?v=3
Germany,4,Umbrella Water-Drops,1137,48.7433425,9.32011220000004,https://drscdn.500px.org/photo/149912587/w%3D280_h%3D280/dd6a3f116c43ccf084b165dd4c3e19f8?v=3
Norway,6,Bergen City fjord,1125,60.3912628,5.32205440000007,https://drscdn.500px.org/photo/150038197/w%3D280_h%3D280/0a6e288509a0a33366cfbba4e74cd1bd?v=3
Italy,6,Sail Away,1122,45.6495264,13.7768182,https://drscdn.500px.org/photo/149882133/w%3D280_h%3D280/51c7293152b131fee46eef9d089d1bc4?v=8
New Zealand,3,Church of the Good Shepherd,1119,-44.0035732721694,170.482385158539,https://drscdn.500px.org/photo/149817415/w%3D280_h%3D280/0006ed72524f9921de38f6b7cef232ca?v=10
United States,13,Bluebell Bliss,1115,36.0135605851815,-81.14501953125,https://drscdn.500px.org/photo/149887931/w%3D280_h%3D280/f5e89c36bd1f6c1540421c04158407a9?v=5
Australia,6,Teisha,1104,-37.8234465,145.3052509,https://drscdn.500px.org/photo/150169169/w%3D280_h%3D280/d878d72c17f30ddc817d0dd696141c9a?v=2
Norway,6,Good morning mr hare,1102,61.2702327900006,6.328125,https://drscdn.500px.org/photo/149859265/w%3D280_h%3D280/3715a8f2514ca20e2fc03e3cf3b1e27a?v=3
Spain,5,SAWTOOTH,1100,43.2966713276412,-2.32176840305328,https://drscdn.500px.org/photo/149696413/w%3D280_h%3D280/03ed3194df9f61185217e9d772c8179c?v=4
Norway,6,Vareid Obssesion II,1096,68.1152852130754,13.3426809310913,https://drscdn.500px.org/photo/149830265/w%3D280_h%3D280/2804364c6d4282cdc0cacea5ea22d948?v=7
Iceland,8,Vestrahorn - Iceland,1095,64.2733333,-15.0086111000001,https://drscdn.500px.org/photo/150147867/w%3D280_h%3D280/e8aa0ea3afd3d0930d6890794ed00134?v=3
France,4,Olivia,1086,43.296482,5.36977999999999,https://drscdn.500px.org/photo/149745449/w%3D280_h%3D280/8cc8c51e295664d9fdf53250da26d274?v=3
Italy,6,Looking For Infinity,1084,45.773277,13.6400161,https://drscdn.500px.org/photo/149703773/w%3D280_h%3D280/13484d509f89bcda1860b50b7e36fac2?v=8
